[{"OBJECT_NAME":"STARLINK-33627","OBJECT_ID":"2025-035S","EPOCH":"2026-01-21T18:37:17.302080","MEAN_MOTION":15.27552983,"ECCENTRICITY":0.00017407,"INCLINATION":42.997,"RA_OF_ASC_NODE":52.1309,"ARG_OF_PERICENTER":289.5359,"MEAN_ANOMALY":70.5305,"EPHEMERIS_TYPE":0,"CLASSIFICATION_TYPE":"U","NORAD_CAT_ID":63068,"ELEMENT_SET_NO":999,"REV_AT_EPOCH":5254,"BSTAR":0.0012607481,"MEAN_MOTION_DOT":0.00034566,"MEAN_MOTION_DDOT":0},{"OBJECT_NAME":"STARLINK-33620","OBJECT_ID":"2025-035T","EPOCH":"2026-01-22T02:22:29.355168","MEAN_MOTION":15.27609292,"ECCENTRICITY":7.562e-5,"INCLINATION":42.9972,"RA_OF_ASC_NODE":50.2587,"ARG_OF_PERICENTER":336.9171,"MEAN_ANOMALY":23.1646,"EPHEMERIS_TYPE":0,"CLASSIFICATION_TYPE":"U","NORAD_CAT_ID":63069,"ELEMENT_SET_NO":999,"REV_AT_EPOCH":5259,"BSTAR":0.0010726476,"MEAN_MOTION_DOT":0.00029399,"MEAN_MOTION_DDOT":0},{"OBJECT_NAME":"STARLINK-33604","OBJECT_ID":"2025-035U","EPOCH":"2026-01-22T02:59:31.784352","MEAN_MOTION":15.27549589,"ECCENTRICITY":0.00010505,"INCLINATION":42.9968,"RA_OF_ASC_NODE":50.4551,"ARG_OF_PERICENTER":45.595,"MEAN_ANOMALY":314.4987,"EPHEMERIS_TYPE":0,"CLASSIFICATION_TYPE":"U","NORAD_CAT_ID":63070,"ELEMENT_SET_NO":999,"REV_AT_EPOCH":5259,"BSTAR":0.0013842874,"MEAN_MOTION_DOT":0.00037991,"MEAN_MOTION_DDOT":0},{"OBJECT_NAME":"STARLINK-33624","OBJECT_ID":"2025-035V","EPOCH":"2026-01-22T02:39:51.938784","MEAN_MOTION":15.27525586,"ECCENTRICITY":5.061e-5,"INCLINATION":42.999,"RA_OF_ASC_NODE":46.8767,"ARG_OF_PERICENTER":279.0771,"MEAN_ANOMALY":81.0023,"EPHEMERIS_TYPE":0,"CLASSIFICATION_TYPE":"U","NORAD_CAT_ID":63071,"ELEMENT_SET_NO":999,"REV_AT_EPOCH":5253,"BSTAR":0.0014836925,"MEAN_MOTION_DOT":0.00040724,"MEAN_MOTION_DDOT":0},{"OBJECT_NAME":"STARLINK-33623","OBJECT_ID":"2025-035W","EPOCH":"2026-01-22T01:16:05.951424","MEAN_MOTION":15.27614834,"ECCENTRICITY":0.00015563,"INCLINATION":43.0018,"RA_OF_ASC_NODE":50.7689,"ARG_OF_PERICENTER":287.3594,"MEAN_ANOMALY":72.7088,"EPHEMERIS_TYPE":0,"CLASSIFICATION_TYPE":"U","NORAD_CAT_ID":63072,"ELEMENT_SET_NO":999,"REV_AT_EPOCH":5259,"BSTAR":0.0015968475,"MEAN_MOTION_DOT":0.00043989,"MEAN_MOTION_DDOT":0},{"OBJECT_NAME":"STARLINK-33586","OBJECT_ID":"2025-035X","EPOCH":"2026-01-21T18:09:04.805568","MEAN_MOTION":15.27573194,"ECCENTRICITY":3.113e-5,"INCLINATION":43.0011,"RA_OF_ASC_NODE":45.0511,"ARG_OF_PERICENTER":220.0566,"MEAN_ANOMALY":140.0263,"EPHEMERIS_TYPE":0,"CLASSIFICATION_TYPE":"U","NORAD_CAT_ID":63073,"ELEMENT_SET_NO":999,"REV_AT_EPOCH":5263,"BSTAR":0.0020477601,"MEAN_MOTION_DOT":0.00056509,"MEAN_MOTION_DDOT":0},{"OBJECT_NAME":"STARLINK-33605","OBJECT_ID":"2025-035Y","EPOCH":"2026-01-22T08:13:12.370656","MEAN_MOTION":15.27602649,"ECCENTRICITY":3.931e-5,"INCLINATION":42.9998,"RA_OF_ASC_NODE":48.634,"ARG_OF_PERICENTER":289.4423,"MEAN_ANOMALY":70.6386,"EPHEMERIS_TYPE":0,"CLASSIFICATION_TYPE":"U","NORAD_CAT_ID":63074,"ELEMENT_SET_NO":999,"REV_AT_EPOCH":5263,"BSTAR":0.0010366533,"MEAN_MOTION_DOT":0.00028394,"MEAN_MOTION_DDOT":0},{"OBJECT_NAME":"STARLINK-32839","OBJECT_ID":"2025-037A","EPOCH":"2026-01-22T05:59:52.372608","MEAN_MOTION":14.98308376,"ECCENTRICITY":0.00039626,"INCLINATION":70.0005,"RA_OF_ASC_NODE":111.6372,"ARG_OF_PERICENTER":275.8334,"MEAN_ANOMALY":84.2373,"EPHEMERIS_TYPE":0,"CLASSIFICATION_TYPE":"U","NORAD_CAT_ID":63077,"ELEMENT_SET_NO":999,"REV_AT_EPOCH":5163,"BSTAR":0.0015627465,"MEAN_MOTION_DOT":0.00018594,"MEAN_MOTION_DDOT":0},{"OBJECT_NAME":"STARLINK-32821","OBJECT_ID":"2025-037B","EPOCH":"2026-01-22T05:59:38.352480","MEAN_MOTION":14.98305379,"ECCENTRICITY":0.00028846,"INCLINATION":70.0006,"RA_OF_ASC_NODE":111.6328,"ARG_OF_PERICENTER":274.7916,"MEAN_ANOMALY":85.2914,"EPHEMERIS_TYPE":0,"CLASSIFICATION_TYPE":"U","NORAD_CAT_ID":63078,"ELEMENT_SET_NO":999,"REV_AT_EPOCH":5163,"BSTAR":0.001751111,"MEAN_MOTION_DOT":0.0002085,"MEAN_MOTION_DDOT":0},{"OBJECT_NAME":"STARLINK-32817","OBJECT_ID":"2025-037C","EPOCH":"2026-01-22T05:17:32.278272","MEAN_MOTION":14.98306293,"ECCENTRICITY":0.00025337,"INCLINATION":70.0014,"RA_OF_ASC_NODE":111.5288,"ARG_OF_PERICENTER":269.7103,"MEAN_ANOMALY":90.3766,"EPHEMERIS_TYPE":0,"CLASSIFICATION_TYPE":"U","NORAD_CAT_ID":63079,"ELEMENT_SET_NO":999,"REV_AT_EPOCH":5163,"BSTAR":0.00039903664,"MEAN_MOTION_DOT":4.668e-5,"MEAN_MOTION_DDOT":0},{"OBJECT_NAME":"STARLINK-32906","OBJECT_ID":"2025-037D","EPOCH":"2026-01-22T06:23:53.811456","MEAN_MOTION":14.97677881,"ECCENTRICITY":0.0005191,"INCLINATION":70.0047,"RA_OF_ASC_NODE":111.6909,"ARG_OF_PERICENTER":347.2277,"MEAN_ANOMALY":12.8749,"EPHEMERIS_TYPE":0,"CLASSIFICATION_TYPE":"U","NORAD_CAT_ID":63080,"ELEMENT_SET_NO":999,"REV_AT_EPOCH":5164,"BSTAR":-0.025403276,"MEAN_MOTION_DOT":-0.00286362,"MEAN_MOTION_DDOT":0},{"OBJECT_NAME":"STARLINK-32895","OBJECT_ID":"2025-037E","EPOCH":"2026-01-22T06:17:40.338816","MEAN_MOTION":14.98304471,"ECCENTRICITY":0.00034084,"INCLINATION":70.0009,"RA_OF_ASC_NODE":111.6793,"ARG_OF_PERICENTER":281.7926,"MEAN_ANOMALY":78.285,"EPHEMERIS_TYPE":0,"CLASSIFICATION_TYPE":"U","NORAD_CAT_ID":63081,"ELEMENT_SET_NO":999,"REV_AT_EPOCH":5150,"BSTAR":0.0012397812,"MEAN_MOTION_DOT":0.00014722,"MEAN_MOTION_DDOT":0},{"OBJECT_NAME":"STARLINK-32933","OBJECT_ID":"2025-037F","EPOCH":"2026-01-22T05:41:51.474048","MEAN_MOTION":14.98259331,"ECCENTRICITY":0.0003548,"INCLINATION":70.0049,"RA_OF_ASC_NODE":111.5855,"ARG_OF_PERICENTER":300.7451,"MEAN_ANOMALY":59.3359,"EPHEMERIS_TYPE":0,"CLASSIFICATION_TYPE":"U","NORAD_CAT_ID":63082,"ELEMENT_SET_NO":999,"REV_AT_EPOCH":5158,"BSTAR":-0.00026566036,"MEAN_MOTION_DOT":-3.256e-5,"MEAN_MOTION_DDOT":0},{"OBJECT_NAME":"STARLINK-32932","OBJECT_ID":"2025-037G","EPOCH":"2026-01-22T05:47:37.092192","MEAN_MOTION":14.98308298,"ECCENTRICITY":0.00028419,"INCLINATION":70.0022,"RA_OF_ASC_NODE":111.6088,"ARG_OF_PERICENTER":275.6597,"MEAN_ANOMALY":84.4238,"EPHEMERIS_TYPE":0,"CLASSIFICATION_TYPE":"U","NORAD_CAT_ID":63083,"ELEMENT_SET_NO":999,"REV_AT_EPOCH":5150,"BSTAR":0.0012461935,"MEAN_MOTION_DOT":0.00014799,"MEAN_MOTION_DDOT":0},{"OBJECT_NAME":"STARLINK-32908","OBJECT_ID":"2025-037H","EPOCH":"2026-01-22T05:35:35.309184","MEAN_MOTION":14.98341647,"ECCENTRICITY":0.000304,"INCLINATION":70.002,"RA_OF_ASC_NODE":111.575,"ARG_OF_PERICENTER":264.3913,"MEAN_ANOMALY":95.69,"EPHEMERIS_TYPE":0,"CLASSIFICATION_TYPE":"U","NORAD_CAT_ID":63084,"ELEMENT_SET_NO":999,"REV_AT_EPOCH":5150,"BSTAR":0.0013412006,"MEAN_MOTION_DOT":0.00015951,"MEAN_MOTION_DDOT":0},{"OBJECT_NAME":"STARLINK-32505","OBJECT_ID":"2025-037J","EPOCH":"2026-01-21T14:16:32.576736","MEAN_MOTION":14.98281379,"ECCENTRICITY":0.00029992,"INCLINATION":70.0015,"RA_OF_ASC_NODE":113.3608,"ARG_OF_PERICENTER":271.9403,"MEAN_ANOMALY":88.1413,"EPHEMERIS_TYPE":0,"CLASSIFICATION_TYPE":"U","NORAD_CAT_ID":63085,"ELEMENT_SET_NO":999,"REV_AT_EPOCH":5149,"BSTAR":0.0011736067,"MEAN_MOTION_DOT":0.00013921,"MEAN_MOTION_DDOT":0}]
