STARLINK-33627          
1 63068U 25035S   26021.77589470  .00034566  00000+0  12607-2 0  9997
2 63068  42.9970  52.1309 0001740 289.5359  70.5305 15.27552983 52542
STARLINK-33620          
1 63069U 25035T   26022.09895087  .00029399  00000+0  10726-2 0  9996
2 63069  42.9972  50.2587 0000756 336.9171  23.1646 15.27609292 52590
STARLINK-33604          
1 63070U 25035U   26022.12467343  .00037991  00000+0  13843-2 0  9992
2 63070  42.9968  50.4551 0001050  45.5950 314.4987 15.27549589 52592
STARLINK-33624          
1 63071U 25035V   26022.11101781  .00040724  00000+0  14837-2 0  9995
2 63071  42.9990  46.8767 0000506 279.0771  81.0023 15.27525586 52539
STARLINK-33623          
1 63072U 25035W   26022.05284666  .00043989  00000+0  15968-2 0  9995
2 63072  43.0018  50.7689 0001556 287.3594  72.7088 15.27614834 52590
STARLINK-33586          
1 63073U 25035X   26021.75630562  .00056509  00000+0  20478-2 0  9996
2 63073  43.0011  45.0511 0000311 220.0566 140.0263 15.27573194 52638
STARLINK-33605          
1 63074U 25035Y   26022.34250429  .00028394  00000+0  10367-2 0  9990
2 63074  42.9998  48.6340 0000393 289.4423  70.6386 15.27602649 52633
STARLINK-32839          
1 63077U 25037A   26022.24991172  .00018594  00000+0  15627-2 0  9996
2 63077  70.0005 111.6372 0003962 275.8334  84.2373 14.98308376 51631
STARLINK-32821          
1 63078U 25037B   26022.24974945  .00020850  00000+0  17511-2 0  9998
2 63078  70.0006 111.6328 0002884 274.7916  85.2914 14.98305379 51632
STARLINK-32817          
1 63079U 25037C   26022.22051248  .00004668  00000+0  39904-3 0  9999
2 63079  70.0014 111.5288 0002533 269.7103  90.3766 14.98306293 51637
STARLINK-32906          
1 63080U 25037D   26022.26659504 -.00286362  00000+0 -25403-1 0  9996
2 63080  70.0047 111.6909 0005191 347.2277  12.8749 14.97677881 51647
STARLINK-32895          
1 63081U 25037E   26022.26227244  .00014722  00000+0  12398-2 0  9996
2 63081  70.0009 111.6793 0003408 281.7926  78.2850 14.98304471 51506
STARLINK-32933          
1 63082U 25037F   26022.23740132 -.00003256  00000+0 -26566-3 0  9995
2 63082  70.0049 111.5855 0003548 300.7451  59.3359 14.98259331 51585
STARLINK-32932          
1 63083U 25037G   26022.24140153  .00014799  00000+0  12462-2 0  9995
2 63083  70.0022 111.6088 0002841 275.6597  84.4238 14.98308298 51506
STARLINK-32908          
1 63084U 25037H   26022.23304756  .00015951  00000+0  13412-2 0  9993
2 63084  70.0020 111.5750 0003040 264.3913  95.6900 14.98341647 51504
STARLINK-32505          
1 63085U 25037J   26021.59482149  .00013921  00000+0  11736-2 0  9997
2 63085  70.0015 113.3608 0002999 271.9403  88.1413 14.98281379 51490
